#aV2021 11 24  0  0  0.00000000     288 DD+AD WGS84 FIT  NGA
## 2185 259200.00000000   300.00000000 59542 0.0000000000000
+   32     1  2  3  4  5  6  7  8  9 10 11 12 13 14 15 16 17
+         18 19 20 21 22 23 24 25 26 27 28 29 30 31 32  0  0
+          0  0  0  0  0  0  0  0  0  0  0  0  0  0  0  0  0
+          0  0  0  0  0  0  0  0  0  0  0  0  0  0  0  0  0
+          0  0  0  0  0  0  0  0  0  0  0  0  0  0  0  0  0
++         2  2  2  2  2  2  2  2  2  2  2  2  2  2  2  2  2
++         2  2  2  2  2  2  2  2  2  2  2  2  2  2  2  0  0
++         0  0  0  0  0  0  0  0  0  0  0  0  0  0  0  0  0
++         0  0  0  0  0  0  0  0  0  0  0  0  0  0  0  0  0
++         0  0  0  0  0  0  0  0  0  0  0  0  0  0  0  0  0
%c cc cc ccc ccc cccc cccc cccc cccc ccccc ccccc ccccc ccccc
%c cc cc ccc ccc cccc cccc cccc cccc ccccc ccccc ccccc ccccc
%f  0.0000000  0.000000000  0.00000000000  0.000000000000000
%f  0.0000000  0.000000000  0.00000000000  0.000000000000000
%i    0    0    0    0      0      0      0      0         0
%i    0    0    0    0      0      0      0      0         0
/*      NGA, ST. LOUIS,MO.                                  
/*   EPHEMERIS COMPUTED FROM 2 DAYS OF DATA                 
/*   EPOCHA v7 SMOOTHER                                     
/*   G2139 IERS2010 SATIGS SATCOM                           
*  2021 11 24 13  5  0.00000000
P  1 -11560.056343  21045.459162 -11241.918841    502.082051                    
V  1 -11469.680570   8149.464186  28052.905211     -0.103738                    
P  2  20633.687644 -13786.998209  -8931.963415   -643.263331                    
V  2  -6267.612617  10821.603890 -28957.664768     -0.014663                    
P  3  -4073.866619  14466.203994 -22005.082487    -21.883572                    
V  3 -26552.342832  -7722.185898    -63.303318     -0.103352                    
P  4  -1690.342401  24653.381763  -9636.813835   -201.047291                    
V  4  -5073.581479 -11461.956754 -28503.020102      0.010236                    
P  5  19176.786173  -7373.156166  16749.838652    -62.147903                    
V  5  20472.157664   6909.010362 -20048.539596     -0.012841                    
P  6  17742.800976   1094.093623 -19686.648870    125.724649                    
V  6 -17506.182625  17954.405023 -14672.045593      0.094415                    
P  7   3533.475892  16804.828344  20510.724103    282.384267                    
V  7 -19265.622365  16563.906323 -10932.260290      0.050924                    
P  8  -8575.486304  17039.154794  18328.716270    -45.447402                    
V  8  -7621.496507 -22191.603684  17371.702229     -0.014652                    
P  9   7636.818513  25390.366527   1195.769199   -361.423441                    
V  9  -2564.304273   2348.848903 -31559.484962      0.004256                    
P 10 -22746.833277 -11877.166688   7546.918515   -253.326874                    
V 10   9538.357011    574.628818  29869.230075     -0.086212                    
P 11  22441.351002  -9585.140254 -10475.867563     17.688926                    
V 11  -8498.471662  10519.846861 -27861.206388     -0.021830                    
P 12   6844.767369 -13530.065611 -22054.736116   -131.001799                    
V 12  25607.450020   9658.821715   2177.210012     -0.055568                    
P 13  13300.326104  -9573.763493  20715.788146    219.395939                    
V 13   3780.448973  26415.951573   9859.006366      0.057195                    
P 14  22067.591984  12877.415625   7362.810889    -43.930294                    
V 14  -9743.446084   -329.017142  29713.501474     -0.066494                    
P 15   6761.730384 -18494.211993  17271.528648   -104.110558                    
V 15  10487.387586  20562.691813  17838.090686      0.028197                    
P 16 -21827.728740   2486.473832  14996.186118   -429.527576                    
V 16 -17395.503856  -8476.898472 -23070.733636     -0.063527                    
P 17  12575.366382  18834.947252 -13415.873199    538.212286                    
V 17   1333.482066  17797.847136  25432.739214      0.054311                    
P 18  -3672.911164 -16023.839094  20833.825901    290.582060                    
V 18  20018.935282 -17325.299067  -9890.040394     -0.060796                    
P 19  14778.005091  10663.401126 -19646.028070     83.450084                    
V 19   2395.577952  24173.052684  14959.922504      0.049985                    
P 20  25180.841667  -2333.546337   7650.415634    517.963777                    
V 20   9307.438020   4689.491006 -29395.824864     -0.001843                    
P 21 -16910.224886  19994.736577   -990.269614    151.930698                    
V 21  -3942.045437   -702.694496  32069.929035      0.010909                    
P 22 -12669.968311  12348.086822 -19579.397766   -457.217509                    
V 22 -24715.932424  -5955.613387  12339.786513      0.090597                    
P 23 -13817.222502 -15458.379386  16629.493928     29.312317                    
V 23  20846.276001   3699.391265  20649.839501     -0.043230                    
P 24  13292.940808 -21905.692368  -6394.365458    270.046392                    
V 24   8079.160897  -3353.422343  29987.692537      0.033502                    
P 25  -5946.652447 -16495.553922 -20297.127615    245.549356                    
V 25  24393.061404   6007.330035 -11918.143650      0.058829                    
P 26 -26242.469116  -4431.867787   2346.792457    158.505415                    
V 26  -2224.658516  -3818.740616 -30906.959515      0.037531                    
P 27 -13650.580321   6224.110408  21705.744091   -223.066313                    
V 27  -7143.904276 -27072.129501   3609.851242     -0.045920                    
P 28  24426.570230  10120.821648    686.117441    456.515361                    
V 28  -1196.649060   2417.370450  32104.122750     -0.075612                    
P 29  -2730.198961 -26265.468034  -2534.142087   -444.974119                    
V 29   2668.744255   2760.425906 -32056.022739     -0.052020                    
P 30  13037.445733   9280.759021  21284.409504   -494.004004                    
V 30 -19596.783239  18491.628669   3715.518327     -0.031113                    
P 31 -19683.141113    625.030666 -18148.231540   -151.752320                    
V 31  15803.667224 -16300.275090 -17345.374617     -0.018945                    
P 32 -15328.100525 -14710.409500 -15939.380069    -26.085471                    
V 32  -3180.608022 -20228.860390  21390.523590     -0.049509                    
EOF
